COMMENT,ORIGINATOR,NORAD_CAT_ID,OBJECT_NAME,OBJECT_TYPE,CLASSIFICATION_TYPE,INTLDES,EPOCH,EPOCH_MICROSECONDS,MEAN_MOTION,ECCENTRICITY,INCLINATION,RA_OF_ASC_NODE,ARG_OF_PERICENTER,MEAN_ANOMALY,EPHEMERIS_TYPE,ELEMENT_SET_NO,REV_AT_EPOCH,BSTAR,MEAN_MOTION_DOT,MEAN_MOTION_DDOT,FILE,TLE_LINE0,TLE_LINE1,TLE_LINE2,OBJECT_ID,OBJECT_NUMBER,SEMIMAJOR_AXIS,PERIOD,APOGEE,PERIGEE,DECAYED
"GENERATED VIA SPACETRACK.ORG API","18 SPCS","55100","SPACEBEE-158","PAYLOAD","U","23001CV","2023-12-18 02:51:37","714464","15.29240693","0.0013889","97.4527","51.4141","78.7295","281.5505","0","999","5311","0.0013371","0.00038115","0","4139416","0 SPACEBEE-158","1 55100U 23001CV  23352.11918651  .00038115  00000-0  13371-2 0  9999","2 55100  97.4527  51.4141 0013889  78.7295 281.5505 15.29240693 53117","2023-001CV","55100","6856.218","94.164","487.605","468.560","0"
"GENERATED VIA SPACETRACK.ORG API","18 SPCS","55100","SPACEBEE-158","PAYLOAD","U","23001CV","2023-12-18 16:59:38","407488","15.2928687","0.0013887","97.4527","52.004","76.9148","283.3641","0","999","5320","0.0013168","0.00037586","0","4139685","0 SPACEBEE-158","1 55100U 23001CV  23352.70808342  .00037586  00000-0  13168-2 0  9994","2 55100  97.4527  52.0040 0013887  76.9148 283.3641 15.29286870 53205","2023-001CV","55100","6856.080","94.162","487.466","468.424","0"
"GENERATED VIA SPACETRACK.ORG API","18 SPCS","55100","SPACEBEE-158","PAYLOAD","U","23001CV","2023-12-19 03:59:11","251680","15.29319369","0.001386","97.4526","52.4625","75.2045","285.0729","0","999","5327","0.0012145","0.00034681","0","4139882","0 SPACEBEE-158","1 55100U 23001CV  23353.16610245  .00034681  00000-0  12145-2 0  9995","2 55100  97.4526  52.4625 0013860  75.2045 285.0729 15.29319369 53279","2023-001CV","55100","6855.983","94.160","487.350","468.345","0"
"GENERATED VIA SPACETRACK.ORG API","18 SPCS","55100","SPACEBEE-158","PAYLOAD","U","23001CV","2023-12-19 03:59:11","251680","15.29319369","0.001386","97.4526","52.4625","75.2045","285.0729","0","999","5327","0.0012145","0.00034681","0","4140211","0 SPACEBEE-158","1 55100U 23001CV  23353.16610245  .00034681  00000-0  12145-2 0  9995","2 55100  97.4526  52.4625 0013860  75.2045 285.0729 15.29319369 53279","2023-001CV","55100","6855.983","94.160","487.350","468.345","0"
"GENERATED VIA SPACETRACK.ORG API","18 SPCS","55100","SPACEBEE-158","PAYLOAD","U","23001CV","2023-12-20 03:32:27","252096","15.29387399","0.0013809","97.4527","53.4463","71.9069","288.3674","0","999","5342","0.0010664","0.00030489","0","4141011","0 SPACEBEE-158","1 55100U 23001CV  23354.14753764  .00030489  00000-0  10664-2 0  9994","2 55100  97.4527  53.4463 0013809  71.9069 288.3674 15.29387399 53423","2023-001CV","55100","6855.779","94.155","487.112","468.177","0"
"GENERATED VIA SPACETRACK.ORG API","18 SPCS","55100","SPACEBEE-158","PAYLOAD","U","23001CV","2023-12-20 17:40:22","928736","15.29435323","0.0013765","97.4528","54.0366","69.9093","290.3627","0","999","5351","0.0012483","0.00035779","0","4141197","0 SPACEBEE-158","1 55100U 23001CV  23354.73637649  .00035779  00000-0  12483-2 0  9990","2 55100  97.4528  54.0366 0013765  69.9093 290.3627 15.29435323 53510","2023-001CV","55100","6855.636","94.152","486.938","468.064","0"
"GENERATED VIA SPACETRACK.ORG API","18 SPCS","55100","SPACEBEE-158","PAYLOAD","U","23001CV","2023-12-20 17:40:22","928736","15.29435323","0.0013765","97.4528","54.0366","69.9093","290.3627","0","999","5351","0.0012483","0.00035779","0","4141291","0 SPACEBEE-158","1 55100U 23001CV  23354.73637649  .00035779  00000-0  12483-2 0  9990","2 55100  97.4528  54.0366 0013765  69.9093 290.3627 15.29435323 53510","2023-001CV","55100","6855.636","94.152","486.938","468.064","0"
"GENERATED VIA SPACETRACK.ORG API","18 SPCS","55100","SPACEBEE-158","PAYLOAD","U","23001CV","2023-12-21 03:05:39","183936","15.29468913","0.0013741","97.4528","54.43","68.1236","292.1464","0","999","5357","0.001362","0.00039102","0","4141803","0 SPACEBEE-158","1 55100U 23001CV  23355.12892574  .00039102  00000-0  13620-2 0  9992","2 55100  97.4528  54.4300 0013741  68.1236 292.1464 15.29468913 53572","2023-001CV","55100","6855.536","94.150","486.821","467.981","0"
"GENERATED VIA SPACETRACK.ORG API","18 SPCS","55100","SPACEBEE-158","PAYLOAD","U","23001CV","2023-12-21 15:39:19","759392","15.29509234","0.0013747","97.453","54.9545","66.2805","293.9876","0","999","5365","0.0012444","0.00035748","0","4141951","0 SPACEBEE-158","1 55100U 23001CV  23355.65231203  .00035748  00000-0  12444-2 0  9991","2 55100  97.4530  54.9545 0013747  66.2805 293.9876 15.29509234 53655","2023-001CV","55100","6855.415","94.148","486.704","467.856","0"
"GENERATED VIA SPACETRACK.ORG API","18 SPCS","55100","SPACEBEE-158","PAYLOAD","U","23001CV","2023-12-22 04:12:59","105376","15.29551089","0.0013757","97.4531","55.4789","64.4883","295.7778","0","999","5373","0.0012605","0.00036261","0","4142181","0 SPACEBEE-158","1 55100U 23001CV  23356.17568409  .00036261  00000-0  12605-2 0  9990","2 55100  97.4531  55.4789 0013757  64.4883 295.7778 15.29551089 53734","2023-001CV","55100","6855.290","94.145","486.586","467.724","0"
"GENERATED VIA SPACETRACK.ORG API","18 SPCS","55100","SPACEBEE-158","PAYLOAD","U","23001CV","2023-12-22 04:12:59","105376","15.29551089","0.0013757","97.4531","55.4789","64.4883","295.7778","0","999","5373","0.0012605","0.00036261","0","4142519","0 SPACEBEE-158","1 55100U 23001CV  23356.17568409  .00036261  00000-0  12605-2 0  9990","2 55100  97.4531  55.4789 0013757  64.4883 295.7778 15.29551089 53734","2023-001CV","55100","6855.290","94.145","486.586","467.724","0"
"GENERATED VIA SPACETRACK.ORG API","18 SPCS","55100","SPACEBEE-158","PAYLOAD","U","23001CV","2023-12-22 16:46:37","186464","15.29596345","0.0013756","97.4532","56.0038","62.8752","297.3889","0","999","5381","0.0013842","0.00039901","0","4142803","0 SPACEBEE-158","1 55100U 23001CV  23356.69904151  .00039901  00000-0  13842-2 0  9993","2 55100  97.4532  56.0038 0013756  62.8752 297.3889 15.29596345 53819","2023-001CV","55100","6855.155","94.142","486.450","467.590","0"
"GENERATED VIA SPACETRACK.ORG API","18 SPCS","55100","SPACEBEE-158","PAYLOAD","U","23001CV","2023-12-23 03:46:02","73216","15.29629381","0.0013769","97.4529","56.4629","61.265","298.9971","0","999","5388","0.0013186","0.00038036","0","4143272","0 SPACEBEE-158","1 55100U 23001CV  23357.15696844  .00038036  00000-0  13186-2 0  9991","2 55100  97.4529  56.4629 0013769  61.2650 298.9971 15.29629381 53882","2023-001CV","55100","6855.056","94.140","486.360","467.483","0"
"GENERATED VIA SPACETRACK.ORG API","18 SPCS","55100","SPACEBEE-158","PAYLOAD","U","23001CV","2023-12-23 03:46:02","73216","15.29629381","0.0013769","97.4529","56.4629","61.265","298.9971","0","999","5388","0.0013186","0.00038036","0","4143387","0 SPACEBEE-158","1 55100U 23001CV  23357.15696844  .00038036  00000-0  13186-2 0  9991","2 55100  97.4529  56.4629 0013769  61.2650 298.9971 15.29629381 53882","2023-001CV","55100","6855.056","94.140","486.360","467.483","0"
"GENERATED VIA SPACETRACK.ORG API","18 SPCS","55100","SPACEBEE-158","PAYLOAD","U","23001CV","2023-12-23 16:19:37","951104","15.29671537","0.0013769","97.4527","56.9874","59.1311","301.1281","0","999","5396","0.0013732","0.00039674","0","4143662","0 SPACEBEE-158","1 55100U 23001CV  23357.68030036  .00039674  00000-0  13732-2 0  9990","2 55100  97.4527  56.9874 0013769  59.1311 301.1281 15.29671537 53967","2023-001CV","55100","6854.930","94.138","486.234","467.357","0"
"GENERATED VIA SPACETRACK.ORG API","18 SPCS","55100","SPACEBEE-158","PAYLOAD","U","23001CV","2023-12-24 03:19:00","860160","15.29707662","0.001369","97.4527","57.4464","57.8701","302.3866","0","999","5403","0.0014526","0.0004203","0","4144212","0 SPACEBEE-158","1 55100U 23001CV  23358.13820440  .00042030  00000-0  14526-2 0  9999","2 55100  97.4527  57.4464 0013690  57.8701 302.3866 15.29707662 54039","2023-001CV","55100","6854.822","94.136","486.072","467.303","0"
"GENERATED VIA SPACETRACK.ORG API","18 SPCS","55100","SPACEBEE-158","PAYLOAD","U","23001CV","2023-12-24 17:26:46","46112","15.29756842","0.0013661","97.4527","58.0368","55.5937","304.6593","0","999","5412","0.0015127","0.00043849","0","4144418","0 SPACEBEE-158","1 55100U 23001CV  23358.72692183  .00043849  00000-0  15127-2 0  9992","2 55100  97.4527  58.0368 0013661  55.5937 304.6593 15.29756842 54129","2023-001CV","55100","6854.676","94.133","485.905","467.176","0"
"GENERATED VIA SPACETRACK.ORG API","18 SPCS","55100","SPACEBEE-158","PAYLOAD","U","23001CV","2023-12-24 17:26:46","46112","15.29756842","0.0013661","97.4527","58.0368","55.5937","304.6593","0","999","5412","0.0015127","0.00043849","0","4144500","0 SPACEBEE-158","1 55100U 23001CV  23358.72692183  .00043849  00000-0  15127-2 0  9992","2 55100  97.4527  58.0368 0013661  55.5937 304.6593 15.29756842 54129","2023-001CV","55100","6854.676","94.133","485.905","467.176","0"
"GENERATED VIA SPACETRACK.ORG API","18 SPCS","55100","SPACEBEE-158","PAYLOAD","U","23001CV","2023-12-25 02:51:55","316736","15.29785036","0.0013634","97.4527","58.4302","54.3653","305.8855","0","999","5418","0.0013772","0.00039928","0","4145093","0 SPACEBEE-158","1 55100U 23001CV  23359.11939024  .00039928  00000-0  13772-2 0  9991","2 55100  97.4527  58.4302 0013634  54.3653 305.8855 15.29785036 54180","2023-001CV","55100","6854.591","94.131","485.802","467.111","0"
"GENERATED VIA SPACETRACK.ORG API","18 SPCS","55100","SPACEBEE-158","PAYLOAD","U","23001CV","2023-12-25 16:59:37","828608","15.29833746","0.0013644","97.4526","59.0203","52.5634","307.6845","0","999","5427","0.00136","0.00039485","0","4145300","0 SPACEBEE-158","1 55100U 23001CV  23359.70807672  .00039485  00000-0  13600-2 0  9997","2 55100  97.4526  59.0203 0013644  52.5634 307.6845 15.29833746 54277","2023-001CV","55100","6854.446","94.128","485.663","466.959","0"
